SAUDISAT 1C             
1 27607U 02058C   24013.16372626  .00002224  00000+0  32077-3 0  9991
2 27607  64.5567 340.8018 0043582 175.1607 184.9927 14.78176955133460
SAUDISAT 2              
1 28371U 04025F   24012.91379931  .00000673  00000+0  16586-3 0  9997
2 28371  98.4629 343.7841 0026038 137.0910 223.2325 14.55224732 36813
SAUDISAT 3              
1 31118U 07012B   24012.82156366  .00000682  00000+0  12187-3 0  9997
2 31118  98.0394 318.5473 0015274 162.7920 197.3807 14.69972923897467
PISAT                   
1 41784U 16059B   24013.08326172  .00001528  00000+0  28967-3 0  9994
2 41784  97.8495  42.1708 0031668 147.2265 213.0912 14.65317780389797
FLYING LAPTOP           
1 42831U 17042G   24012.92455910  .00003617  00000+0  34299-3 0  9992
2 42831  97.3795 203.0597 0011923 239.2618 120.7429 14.94094118353796
SALSAT                  
1 46495U 20068K   24012.86600683  .00007581  00000+0  46394-3 0  9999
2 46495  97.7983 328.7746 0016251 122.7429 237.5369 15.10405246180699
